<?xml version="1.0" encoding="UTF-8"?>
<ndm xmlns:xsi="http://www.w3.org/2001/XMLSchema-instance" xsi:noNamespaceSchemaLocation="https://sanaregistry.org/r/ndmxml_unqualified/ndmxml-2.0.0-master-2.0.xsd">
<omm id="CCSDS_OMM_VERS" version="2.0">
<header><CREATION_DATE/><ORIGINATOR/></header><body><segment><metadata><OBJECT_NAME>ONEWEB-0300</OBJECT_NAME><OBJECT_ID>2021-075Q</OBJECT_ID><CENTER_NAME>EARTH</CENTER_NAME><REF_FRAME>TEME</REF_FRAME><TIME_SYSTEM>UTC</TIME_SYSTEM><MEAN_ELEMENT_THEORY>SGP4</MEAN_ELEMENT_THEORY></metadata><data><meanElements><EPOCH>2025-01-21T13:15:42.755616</EPOCH><MEAN_MOTION>13.12442900</MEAN_MOTION><ECCENTRICITY>.0001454</ECCENTRICITY><INCLINATION>87.8857</INCLINATION><RA_OF_ASC_NODE>92.5326</RA_OF_ASC_NODE><ARG_OF_PERICENTER>106.4727</ARG_OF_PERICENTER><MEAN_ANOMALY>253.6562</MEAN_ANOMALY></meanElements><tleParameters><EPHEMERIS_TYPE>0</EPHEMERIS_TYPE><CLASSIFICATION_TYPE>U</CLASSIFICATION_TYPE><NORAD_CAT_ID>49089</NORAD_CAT_ID><ELEMENT_SET_NO>999</ELEMENT_SET_NO><REV_AT_EPOCH>16809</REV_AT_EPOCH><BSTAR>.83071E-3</BSTAR><MEAN_MOTION_DOT>.312E-5</MEAN_MOTION_DOT><MEAN_MOTION_DDOT>0</MEAN_MOTION_DDOT></tleParameters></data></segment></body></omm>
<omm id="CCSDS_OMM_VERS" version="2.0">
<header><CREATION_DATE/><ORIGINATOR/></header><body><segment><metadata><OBJECT_NAME>ONEWEB-0301</OBJECT_NAME><OBJECT_ID>2021-075R</OBJECT_ID><CENTER_NAME>EARTH</CENTER_NAME><REF_FRAME>TEME</REF_FRAME><TIME_SYSTEM>UTC</TIME_SYSTEM><MEAN_ELEMENT_THEORY>SGP4</MEAN_ELEMENT_THEORY></metadata><data><meanElements><EPOCH>2025-01-21T14:42:07.740576</EPOCH><MEAN_MOTION>13.12443311</MEAN_MOTION><ECCENTRICITY>.0001523</ECCENTRICITY><INCLINATION>87.8856</INCLINATION><RA_OF_ASC_NODE>92.5253</RA_OF_ASC_NODE><ARG_OF_PERICENTER>108.0971</ARG_OF_PERICENTER><MEAN_ANOMALY>252.0324</MEAN_ANOMALY></meanElements><tleParameters><EPHEMERIS_TYPE>0</EPHEMERIS_TYPE><CLASSIFICATION_TYPE>U</CLASSIFICATION_TYPE><NORAD_CAT_ID>49090</NORAD_CAT_ID><ELEMENT_SET_NO>999</ELEMENT_SET_NO><REV_AT_EPOCH>16746</REV_AT_EPOCH><BSTAR>-.67439E-3</BSTAR><MEAN_MOTION_DOT>-.23E-5</MEAN_MOTION_DOT><MEAN_MOTION_DDOT>0</MEAN_MOTION_DDOT></tleParameters></data></segment></body></omm>
<omm id="CCSDS_OMM_VERS" version="2.0">
<header><CREATION_DATE/><ORIGINATOR/></header><body><segment><metadata><OBJECT_NAME>ONEWEB-0302</OBJECT_NAME><OBJECT_ID>2021-075S</OBJECT_ID><CENTER_NAME>EARTH</CENTER_NAME><REF_FRAME>TEME</REF_FRAME><TIME_SYSTEM>UTC</TIME_SYSTEM><MEAN_ELEMENT_THEORY>SGP4</MEAN_ELEMENT_THEORY></metadata><data><meanElements><EPOCH>2025-01-21T14:23:28.180608</EPOCH><MEAN_MOTION>13.12442380</MEAN_MOTION><ECCENTRICITY>.0002267</ECCENTRICITY><INCLINATION>87.8856</INCLINATION><RA_OF_ASC_NODE>92.5277</RA_OF_ASC_NODE><ARG_OF_PERICENTER>102.1736</ARG_OF_PERICENTER><MEAN_ANOMALY>257.9647</MEAN_ANOMALY></meanElements><tleParameters><EPHEMERIS_TYPE>0</EPHEMERIS_TYPE><CLASSIFICATION_TYPE>U</CLASSIFICATION_TYPE><NORAD_CAT_ID>49091</NORAD_CAT_ID><ELEMENT_SET_NO>999</ELEMENT_SET_NO><REV_AT_EPOCH>16744</REV_AT_EPOCH><BSTAR>-.11559E-2</BSTAR><MEAN_MOTION_DOT>-.403E-5</MEAN_MOTION_DOT><MEAN_MOTION_DDOT>0</MEAN_MOTION_DDOT></tleParameters></data></segment></body></omm>
<omm id="CCSDS_OMM_VERS" version="2.0">
<header><CREATION_DATE/><ORIGINATOR/></header><body><segment><metadata><OBJECT_NAME>ONEWEB-0304</OBJECT_NAME><OBJECT_ID>2021-075T</OBJECT_ID><CENTER_NAME>EARTH</CENTER_NAME><REF_FRAME>TEME</REF_FRAME><TIME_SYSTEM>UTC</TIME_SYSTEM><MEAN_ELEMENT_THEORY>SGP4</MEAN_ELEMENT_THEORY></metadata><data><meanElements><EPOCH>2025-01-21T17:43:03.604224</EPOCH><MEAN_MOTION>13.17647204</MEAN_MOTION><ECCENTRICITY>.0001894</ECCENTRICITY><INCLINATION>87.9092</INCLINATION><RA_OF_ASC_NODE>107.7657</RA_OF_ASC_NODE><ARG_OF_PERICENTER>98.6676</ARG_OF_PERICENTER><MEAN_ANOMALY>261.4670</MEAN_ANOMALY></meanElements><tleParameters><EPHEMERIS_TYPE>0</EPHEMERIS_TYPE><CLASSIFICATION_TYPE>U</CLASSIFICATION_TYPE><NORAD_CAT_ID>49092</NORAD_CAT_ID><ELEMENT_SET_NO>999</ELEMENT_SET_NO><REV_AT_EPOCH>16720</REV_AT_EPOCH><BSTAR>.86015E-4</BSTAR><MEAN_MOTION_DOT>.46E-6</MEAN_MOTION_DOT><MEAN_MOTION_DDOT>0</MEAN_MOTION_DDOT></tleParameters></data></segment></body></omm>
<omm id="CCSDS_OMM_VERS" version="2.0">
<header><CREATION_DATE/><ORIGINATOR/></header><body><segment><metadata><OBJECT_NAME>ONEWEB-0305</OBJECT_NAME><OBJECT_ID>2021-075U</OBJECT_ID><CENTER_NAME>EARTH</CENTER_NAME><REF_FRAME>TEME</REF_FRAME><TIME_SYSTEM>UTC</TIME_SYSTEM><MEAN_ELEMENT_THEORY>SGP4</MEAN_ELEMENT_THEORY></metadata><data><meanElements><EPOCH>2025-01-21T06:37:15.123936</EPOCH><MEAN_MOTION>13.17647745</MEAN_MOTION><ECCENTRICITY>.0001874</ECCENTRICITY><INCLINATION>87.9090</INCLINATION><RA_OF_ASC_NODE>107.8392</RA_OF_ASC_NODE><ARG_OF_PERICENTER>89.1983</ARG_OF_PERICENTER><MEAN_ANOMALY>270.9363</MEAN_ANOMALY></meanElements><tleParameters><EPHEMERIS_TYPE>0</EPHEMERIS_TYPE><CLASSIFICATION_TYPE>U</CLASSIFICATION_TYPE><NORAD_CAT_ID>49093</NORAD_CAT_ID><ELEMENT_SET_NO>999</ELEMENT_SET_NO><REV_AT_EPOCH>16619</REV_AT_EPOCH><BSTAR>.1386E-3</BSTAR><MEAN_MOTION_DOT>.67E-6</MEAN_MOTION_DOT><MEAN_MOTION_DDOT>0</MEAN_MOTION_DDOT></tleParameters></data></segment></body></omm>
<omm id="CCSDS_OMM_VERS" version="2.0">
<header><CREATION_DATE/><ORIGINATOR/></header><body><segment><metadata><OBJECT_NAME>ONEWEB-0308</OBJECT_NAME><OBJECT_ID>2021-075V</OBJECT_ID><CENTER_NAME>EARTH</CENTER_NAME><REF_FRAME>TEME</REF_FRAME><TIME_SYSTEM>UTC</TIME_SYSTEM><MEAN_ELEMENT_THEORY>SGP4</MEAN_ELEMENT_THEORY></metadata><data><meanElements><EPOCH>2025-01-21T14:14:06.201312</EPOCH><MEAN_MOTION>13.12441921</MEAN_MOTION><ECCENTRICITY>.0001751</ECCENTRICITY><INCLINATION>87.8855</INCLINATION><RA_OF_ASC_NODE>92.5260</RA_OF_ASC_NODE><ARG_OF_PERICENTER>103.9622</ARG_OF_PERICENTER><MEAN_ANOMALY>256.1702</MEAN_ANOMALY></meanElements><tleParameters><EPHEMERIS_TYPE>0</EPHEMERIS_TYPE><CLASSIFICATION_TYPE>U</CLASSIFICATION_TYPE><NORAD_CAT_ID>49094</NORAD_CAT_ID><ELEMENT_SET_NO>999</ELEMENT_SET_NO><REV_AT_EPOCH>16745</REV_AT_EPOCH><BSTAR>-.87084E-3</BSTAR><MEAN_MOTION_DOT>-.301E-5</MEAN_MOTION_DOT><MEAN_MOTION_DDOT>0</MEAN_MOTION_DDOT></tleParameters></data></segment></body></omm>
<omm id="CCSDS_OMM_VERS" version="2.0">
<header><CREATION_DATE/><ORIGINATOR/></header><body><segment><metadata><OBJECT_NAME>ONEWEB-0309</OBJECT_NAME><OBJECT_ID>2021-075W</OBJECT_ID><CENTER_NAME>EARTH</CENTER_NAME><REF_FRAME>TEME</REF_FRAME><TIME_SYSTEM>UTC</TIME_SYSTEM><MEAN_ELEMENT_THEORY>SGP4</MEAN_ELEMENT_THEORY></metadata><data><meanElements><EPOCH>2025-01-21T17:38:12.464736</EPOCH><MEAN_MOTION>13.17648052</MEAN_MOTION><ECCENTRICITY>.0002327</ECCENTRICITY><INCLINATION>87.9092</INCLINATION><RA_OF_ASC_NODE>107.7591</RA_OF_ASC_NODE><ARG_OF_PERICENTER>107.3076</ARG_OF_PERICENTER><MEAN_ANOMALY>252.8310</MEAN_ANOMALY></meanElements><tleParameters><EPHEMERIS_TYPE>0</EPHEMERIS_TYPE><CLASSIFICATION_TYPE>U</CLASSIFICATION_TYPE><NORAD_CAT_ID>49095</NORAD_CAT_ID><ELEMENT_SET_NO>999</ELEMENT_SET_NO><REV_AT_EPOCH>16721</REV_AT_EPOCH><BSTAR>.52548E-4</BSTAR><MEAN_MOTION_DOT>.33E-6</MEAN_MOTION_DOT><MEAN_MOTION_DDOT>0</MEAN_MOTION_DDOT></tleParameters></data></segment></body></omm>
<omm id="CCSDS_OMM_VERS" version="2.0">
<header><CREATION_DATE/><ORIGINATOR/></header><body><segment><metadata><OBJECT_NAME>ONEWEB-0310</OBJECT_NAME><OBJECT_ID>2021-075X</OBJECT_ID><CENTER_NAME>EARTH</CENTER_NAME><REF_FRAME>TEME</REF_FRAME><TIME_SYSTEM>UTC</TIME_SYSTEM><MEAN_ELEMENT_THEORY>SGP4</MEAN_ELEMENT_THEORY></metadata><data><meanElements><EPOCH>2025-01-21T14:35:07.182528</EPOCH><MEAN_MOTION>13.12443097</MEAN_MOTION><ECCENTRICITY>.0001979</ECCENTRICITY><INCLINATION>87.8865</INCLINATION><RA_OF_ASC_NODE>92.5507</RA_OF_ASC_NODE><ARG_OF_PERICENTER>104.1275</ARG_OF_PERICENTER><MEAN_ANOMALY>256.0073</MEAN_ANOMALY></meanElements><tleParameters><EPHEMERIS_TYPE>0</EPHEMERIS_TYPE><CLASSIFICATION_TYPE>U</CLASSIFICATION_TYPE><NORAD_CAT_ID>49096</NORAD_CAT_ID><ELEMENT_SET_NO>999</ELEMENT_SET_NO><REV_AT_EPOCH>16808</REV_AT_EPOCH><BSTAR>-.98044E-3</BSTAR><MEAN_MOTION_DOT>-.34E-5</MEAN_MOTION_DOT><MEAN_MOTION_DDOT>0</MEAN_MOTION_DDOT></tleParameters></data></segment></body></omm>

</ndm>
