ONEWEB-0300             
1 49089U 21075Q   25021.55257819  .00000312  00000+0  83071-3 0  9994
2 49089  87.8857  92.5326 0001454 106.4727 253.6562 13.12442900168092
ONEWEB-0301             
1 49090U 21075R   25021.61258959 -.00000230  00000+0 -67439-3 0  9990
2 49090  87.8856  92.5253 0001523 108.0971 252.0324 13.12443311167464
ONEWEB-0302             
1 49091U 21075S   25021.59963172 -.00000403  00000+0 -11559-2 0  9991
2 49091  87.8856  92.5277 0002267 102.1736 257.9647 13.12442380167446
ONEWEB-0304             
1 49092U 21075T   25021.73823616  .00000046  00000+0  86015-4 0  9998
2 49092  87.9092 107.7657 0001894  98.6676 261.4670 13.17647204167205
ONEWEB-0305             
1 49093U 21075U   25021.27586949  .00000067  00000+0  13860-3 0  9993
2 49093  87.9090 107.8392 0001874  89.1983 270.9363 13.17647745166196
ONEWEB-0308             
1 49094U 21075V   25021.59312733 -.00000301  00000+0 -87084-3 0  9999
2 49094  87.8855  92.5260 0001751 103.9622 256.1702 13.12441921167454
ONEWEB-0309             
1 49095U 21075W   25021.73486649  .00000033  00000+0  52548-4 0  9992
2 49095  87.9092 107.7591 0002327 107.3076 252.8310 13.17648052167217
ONEWEB-0310             
1 49096U 21075X   25021.60772202 -.00000340  00000+0 -98044-3 0  9995
2 49096  87.8865  92.5507 0001979 104.1275 256.0073 13.12443097168086
